[{"OBJECT_ID":"2014-060A","OBJECT_NAME":"HIMAWARI 8","NORAD_CAT_ID":"40267","OBJECT_TYPE":"PAYLOAD","PERIOD":"1436.108","INCLINATION":"0.0198","APOGEE":"35791.796","PERIGEE":"35781.870","ECCENTRICITY":"0.0001177","MEAN_MOTION":"1.00270941","TLE_LINE1":"1 40267U 14060A   16238.68067234 -.00000303  00000-0  00000+0 0  9992","TLE_LINE2":"2 40267   0.0198 166.9351 0001177 358.1651 194.9033  1.00270941  6947","LAUNCH_DATE":"2014-10-07","LAUNCH_SITE":"TANEGASHIMA SPACE CENTER","OWNER":"JAPAN","ORBIT_TYPE":"Geosynchronous","OPERATIONAL_STATUS":"Operational","satInfo":{"lng":116.40589844029716,"lat":-0.6593019116185702,"elevation":-9.221181514156077,"azimuth":198.5941015597028,"range":42694.239726184154,"height":35767.156365525814,"velocity":3.075266939394129},"x":320,"y":159},{"OBJECT_ID":"2014-062A","OBJECT_NAME":"INTELSAT 30","NORAD_CAT_ID":"40271","OBJECT_TYPE":"PAYLOAD","PERIOD":"1436.159","INCLINATION":"0.0355","APOGEE":"35798.108","PERIGEE":"35777.523","ECCENTRICITY":"0.0002441","MEAN_MOTION":"1.00267437","TLE_LINE1":"1 40271U 14062A   16237.62305015  .00000000  00000-0  10000-3 0  9992","TLE_LINE2":"2 40271   0.0355  90.7211 0002441 343.8989  27.9301  1.00267437  6844","LAUNCH_DATE":"2014-10-16","LAUNCH_SITE":"FRENCH GUIANA","OWNER":"INTERNATIONAL TELECOMMUNICATIONS SATELLITE ORGANIZATION (INTELSAT)","ORBIT_TYPE":"Geosynchronous","OPERATIONAL_STATUS":"Operational","satInfo":{"lng":-106.60028313467895,"lat":2.224603952079888,"elevation":-6.393828940014976,"azimuth":61.60028313467884,"range":42401.34658679053,"height":35791.219007138636,"velocity":3.074530970521809},"x":-343,"y":102},{"OBJECT_ID":"2014-062B","OBJECT_NAME":"ARSAT 1","NORAD_CAT_ID":"40272","OBJECT_TYPE":"PAYLOAD","PERIOD":"1436.112","INCLINATION":"0.0377","APOGEE":"35792.226","PERIGEE":"35781.566","ECCENTRICITY":"0.0001264","MEAN_MOTION":"1.00270717","TLE_LINE1":"1 40272U 14062B   16239.27101584 -.00000288  00000-0  00000+0 0  9995","TLE_LINE2":"2 40272   0.0377 265.5387 0001264 274.5490 180.6080  1.00270717  6974","LAUNCH_DATE":"2014-10-16","LAUNCH_SITE":"FRENCH GUIANA","OWNER":"ARGENTINA","ORBIT_TYPE":"Geosynchronous","OPERATIONAL_STATUS":"Operational","satInfo":{"lng":-89.11352840641435,"lat":-1.6747605593464283,"elevation":-10.20458929665026,"azimuth":44.11352840641429,"range":42832.90168885211,"height":35795.205931468896,"velocity":3.074569808439264},"x":-358,"y":-6},{"OBJECT_ID":"2014-064A","OBJECT_NAME":"EXPRESS AM-6","NORAD_CAT_ID":"40277","OBJECT_TYPE":"PAYLOAD","PERIOD":"1435.856","INCLINATION":"0.0254","APOGEE":"35788.100","PERIGEE":"35775.662","ECCENTRICITY":"0.0001475","MEAN_MOTION":"1.00288608","TLE_LINE1":"1 40277U 14064A   16238.65638664  .00000069  00000-0  00000+0 0  9993","TLE_LINE2":"2 40277   0.0254 242.6845 0001475 113.7513 267.2092  1.00288608  6740","LAUNCH_DATE":"2014-10-21","LAUNCH_SITE":"TYURATAM MISSILE AND SPACE COMPLEX","OWNER":"COMMONWEALTH OF INDEPENDENT STATES","ORBIT_TYPE":"Geosynchronous","OPERATIONAL_STATUS":"Operational","satInfo":{"lng":98.15480400163197,"lat":0.5884255560064385,"elevation":-7.9996884275151645,"azimuth":216.84519599836804,"range":42571.59354518854,"height":35781.40599930599,"velocity":3.0751110133667328},"x":354,"y":51},{"OBJECT_ID":"2014-064B","OBJECT_NAME":"BREEZE-M R/B","NORAD_CAT_ID":"40278","OBJECT_TYPE":"ROCKET BODY","PERIOD":"1512.243","INCLINATION":"0.47","APOGEE":"39734.921","PERIGEE":"34793.466","ECCENTRICITY":"0.0566131","MEAN_MOTION":"0.95222787","TLE_LINE1":"1 40278U 14064B   16238.93816758 -.00000155  00000-0  00000+0 0  9994","TLE_LINE2":"2 40278   0.4700  80.6914 0566131 145.2013 129.3295  0.95222787  6436","LAUNCH_DATE":"2014-10-21","LAUNCH_SITE":"TYURATAM MISSILE AND SPACE COMPLEX","OWNER":"COMMONWEALTH OF INDEPENDENT STATES","ORBIT_TYPE":"Unclassified","OPERATIONAL_STATUS":"N/A, derelict rocket body","satInfo":{"lng":28.34493322793367,"lat":-2.7571715925288007,"elevation":-11.130643645773374,"azimuth":286.6550667720663,"range":43589.44198337883,"height":36440.88735542675,"velocity":3.079735568598702},"x":173,"y":-321},{"OBJECT_ID":"2014-078A","OBJECT_NAME":"GSAT 16","NORAD_CAT_ID":"40332","OBJECT_TYPE":"PAYLOAD","PERIOD":"1436.100","INCLINATION":"0.0426","APOGEE":"35811.398","PERIGEE":"35761.930","ECCENTRICITY":"0.0005866","MEAN_MOTION":"1.00271543","TLE_LINE1":"1 40332U 14078A   16238.91782999 +.00000057 +00000-0 +00000-0 0  9998","TLE_LINE2":"2 40332 000.0426 272.8159 0005866 193.3721 253.8697 01.00271543006213","LAUNCH_DATE":"2014-12-06","LAUNCH_SITE":"FRENCH GUIANA","OWNER":"INDIA","ORBIT_TYPE":"Geosynchronous","OPERATIONAL_STATUS":"Operational","satInfo":{"lng":94.83708903109826,"lat":1.775288220384791,"elevation":-6.835619966833345,"azimuth":220.16291096890174,"range":42447.50862430168,"height":35787.860830854544,"velocity":3.07452745979947},"x":357,"y":30},{"OBJECT_ID":"2014-078B","OBJECT_NAME":"DIRECTV 14","NORAD_CAT_ID":"40333","OBJECT_TYPE":"PAYLOAD","PERIOD":"1436.096","INCLINATION":"0.0366","APOGEE":"35790.367","PERIGEE":"35782.803","ECCENTRICITY":"8.97e-05","MEAN_MOTION":"1.00271825","TLE_LINE1":"1 40333U 14078B   16239.11229942 -.00000154  00000-0  00000+0 0  9994","TLE_LINE2":"2 40333   0.0366 300.0091 0000897  42.7815 293.1751  1.00271825  6329","LAUNCH_DATE":"2014-12-06","LAUNCH_SITE":"FRENCH GUIANA","OWNER":"UNITED STATES OF AMERICA","ORBIT_TYPE":"Geosynchronous","OPERATIONAL_STATUS":"Operational","satInfo":{"lng":-104.8448317967331,"lat":-2.025233650886834,"elevation":-10.545801125682521,"azimuth":59.844831796733104,"range":42868.88202424674,"height":35792.958325959946,"velocity":3.0743214712919222},"x":-346,"y":92},{"OBJECT_ID":"2014-082A","OBJECT_NAME":"YAMAL 401","NORAD_CAT_ID":"40345","OBJECT_TYPE":"PAYLOAD","PERIOD":"1436.104","INCLINATION":"0.0292","APOGEE":"35788.938","PERIGEE":"35784.570","ECCENTRICITY":"5.18e-05","MEAN_MOTION":"1.00271224","TLE_LINE1":"1 40345U 14082A   16239.05327470 -.00000256  00000-0  00000+0 0  9993","TLE_LINE2":"2 40345   0.0292 129.0573 0000518 286.5594  28.2207  1.00271224  6490","LAUNCH_DATE":"2014-12-15","LAUNCH_SITE":"TYURATAM MISSILE AND SPACE COMPLEX","OWNER":"COMMONWEALTH OF INDEPENDENT STATES","ORBIT_TYPE":"Geosynchronous","OPERATIONAL_STATUS":"Operational","satInfo":{"lng":60.470176018511985,"lat":-1.633209457060027,"elevation":-10.166124768512173,"azimuth":254.52982398148802,"range":42818.627737703006,"height":35785.35506333746,"velocity":3.0747440203442324},"x":311,"y":-176},{"OBJECT_ID":"2014-082B","OBJECT_NAME":"BREEZE-M R/B","NORAD_CAT_ID":"40346","OBJECT_TYPE":"ROCKET BODY","PERIOD":"1293.391","INCLINATION":"1.4397","APOGEE":"35376.612","PERIGEE":"30513.149","ECCENTRICITY":"0.0618399","MEAN_MOTION":"1.1133521","TLE_LINE1":"1 40346U 14082B   16237.80401350 -.00000141  00000-0  00000+0 0  9998","TLE_LINE2":"2 40346   1.4397  99.5316 0618399  61.7743 304.6604  1.11335210  6837","LAUNCH_DATE":"2014-12-15","LAUNCH_SITE":"TYURATAM MISSILE AND SPACE COMPLEX","OWNER":"COMMONWEALTH OF INDEPENDENT STATES","ORBIT_TYPE":"Unclassified","OPERATIONAL_STATUS":"N/A, derelict rocket body","satInfo":{"lng":-25.812020850097557,"lat":-0.3855811398989873,"elevation":-9.706962484431063,"azimuth":340.81202085009755,"range":39245.59743277234,"height":32306.455724973945,"velocity":3.2359611485729376},"x":-141,"y":-291},{"OBJECT_ID":"2014-085A","OBJECT_NAME":"DUMMY SAT 2/BREEZE-M","NORAD_CAT_ID":"40355","OBJECT_TYPE":"PAYLOAD","PERIOD":"1530.920","INCLINATION":"1.5239","APOGEE":"39081.379","PERIGEE":"36164.223","ECCENTRICITY":"0.0331488","MEAN_MOTION":"0.94061063","TLE_LINE1":"1 40355U 14085A   16238.21435198 -.00000166 +00000-0 +00000-0 0  9992","TLE_LINE2":"2 40355 001.5239 092.1985 0331488 260.4590 096.2128 00.94061063005514","LAUNCH_DATE":"2014-12-23","LAUNCH_SITE":"PLESETSK MISSILE AND SPACE COMPLEX","OWNER":"COMMONWEALTH OF INDEPENDENT STATES","ORBIT_TYPE":"Unclassified","OPERATIONAL_STATUS":"Nonoperational","satInfo":{"lng":-127.23496041720728,"lat":3.993044064054617,"elevation":-4.067571751502224,"azimuth":82.23496041720723,"range":45247.6546804334,"height":38865.267442707926,"velocity":2.9260238558715725},"x":-309,"y":235},{"OBJECT_ID":"2014-089A","OBJECT_NAME":"ASTRA 2G","NORAD_CAT_ID":"40364","OBJECT_TYPE":"PAYLOAD","PERIOD":"1436.140","INCLINATION":"0.0509","APOGEE":"35799.957","PERIGEE":"35774.961","ECCENTRICITY":"0.0002964","MEAN_MOTION":"1.00268709","TLE_LINE1":"1 40364U 14089A   16238.99210362  .00000122  00000-0  00000+0 0  9995","TLE_LINE2":"2 40364   0.0509 307.2893 0002964 146.5807 266.1570  1.00268709  6104","LAUNCH_DATE":"2014-12-27","LAUNCH_SITE":"TYURATAM MISSILE AND SPACE COMPLEX","OWNER":"SOCIÉTÉ EUROPÉENNE DES SATELLITES","ORBIT_TYPE":"Geosynchronous","OPERATIONAL_STATUS":"Operational","satInfo":{"lng":69.05746314538152,"lat":1.7523687924011937,"elevation":-6.86286668559283,"azimuth":245.94253685461848,"range":42426.75745686221,"height":35764.32140038804,"velocity":3.075350043487263},"x":334,"y":-128},{"OBJECT_ID":"2014-090A","OBJECT_NAME":"FENGYUN 2G","NORAD_CAT_ID":"40367","OBJECT_TYPE":"PAYLOAD","PERIOD":"1436.040","INCLINATION":"1.0482","APOGEE":"35795.913","PERIGEE":"35775.084","ECCENTRICITY":"0.000247","MEAN_MOTION":"1.00275701","TLE_LINE1":"1 40367U 14090A   16238.86176439 -.00000357  00000-0  00000+0 0  9993","TLE_LINE2":"2 40367   1.0482 270.2868 0002470 321.8385 157.2565  1.00275701  6126","LAUNCH_DATE":"2014-12-31","LAUNCH_SITE":"Xichang Space Center, China","OWNER":"PEOPLES REPUBLIC OF CHINA","ORBIT_TYPE":"Geosynchronous","OPERATIONAL_STATUS":"Operational","satInfo":{"lng":49.85259112566625,"lat":1.2718917394710854,"elevation":-7.327763209710638,"azimuth":265.14740887433373,"range":42510.06180577328,"height":35795.11492129671,"velocity":3.074401359175048},"x":274,"y":-231}]